{
  "norad_id": 57465,
  "name": "STARLINK-30116",
  "history": [
    {
      "epoch": "2026-03-28T16:53:55.820256Z",
      "apogee_km": 485.50802608288996,
      "perigee_km": 480.41599284202675,
      "latitude_deg": -2.9168497170787293e-05,
      "longitude_deg": 149.23553799332822,
      "height_km": 483.2287810770808,
      "semi_major_axis_km": 6861.099009462458,
      "eccentricity": 0.00037108,
      "inclination_deg": 43.0048,
      "raan_deg": 228.8389,
      "arg_perigee_deg": 258.9475,
      "mean_anomaly_deg": 101.0959,
      "mean_motion_rev_day": 15.27609084
    }
  ]
}